OBJECT_NAME,OBJECT_ID,EPOCH,MEAN_MOTION,ECCENTRICITY,INCLINATION,RA_OF_ASC_NODE,ARG_OF_PERICENTER,MEAN_ANOMALY,EPHEMERIS_TYPE,CLASSIFICATION_TYPE,NORAD_CAT_ID,ELEMENT_SET_NO,REV_AT_EPOCH,BSTAR,MEAN_MOTION_DOT,MEAN_MOTION_DDOT
COSMOS 2508 (RODNIK-S 14),2015-050B,2026-07-12T05:18:35.690688,12.42914892,.0014061,82.4868,62.5779,333.5281,26.5078,0,U,40921,999,48995,.12201E-3,.27E-6,0
COSMOS 2509 (RODNIK-S 15),2015-050C,2026-07-12T03:52:51.120192,12.42884334,.001475,82.4876,62.7199,350.8502,9.2307,0,U,40922,999,48998,-.24369E-5,.9E-7,0
LINGQIAO VIDEO A,2015-057B,2026-07-12T05:13:19.133184,14.77425843,.00164,97.6629,186.7861,182.6567,177.4560,0,U,40959,999,57910,.13524E-3,.916E-5,0
LINGQIAO VIDEO B,2015-057C,2026-07-12T04:37:08.658048,14.77528973,.001654,97.6595,187.9190,182.8536,177.2583,0,U,40960,999,57914,.16991E-4,.73E-6,0
JILIN-1,2015-057D,2026-07-12T04:40:28.432128,14.78198571,.0016939,97.6518,191.3212,176.5385,183.5946,0,U,40961,999,57930,.64772E-4,.422E-5,0
FOX-1A (AO-85),2015-058D,2026-07-12T00:50:37.736736,14.91076787,.0132122,64.7730,201.7566,46.9965,314.2129,0,U,40967,999,11727,.16264E-3,.1727E-4,0
SINOD-D 1,2015-058E,2026-07-11T09:52:53.360544,14.96065583,.01207429,64.7731,183.0409,43.5992,317.4586,0,U,40968,999,12028,.24246523E-3,.2981E-4,0
ELEKTRO-L 2,2015-074A,2026-07-11T10:04:03.448704,1.00272476,.00008885,6.7510,70.2237,218.2194,137.3884,0,U,41105,999,3874,0,-.118E-5,0
DAMPE,2015-078A,2026-07-12T04:53:29.569344,15.30848574,.001194,97.4565,198.7943,356.3904,3.7248,0,U,41173,999,58837,.28295E-4,.767E-5,0
ORBCOMM FM110,2015-081D,2026-07-11T14:55:01.664256,14.58915508,.00034383,47.0009,245.9084,207.7250,152.3453,0,U,41182,999,56119,.77906838E-4,.197E-5,0
ORBCOMM FM112,2015-081F,2026-07-11T05:58:44.266080,14.58935043,.00038914,46.9978,156.4607,312.3848,47.6708,0,U,41184,999,56246,.11894191E-3,.392E-5,0
ORBCOMM FM113,2015-081G,2026-07-11T23:31:04.744992,14.58880123,.0002383,46.9996,153.3938,309.4592,50.6083,0,U,41185,999,56255,.67215E-4,.147E-5,0
ORBCOMM FM108,2015-081J,2026-07-12T00:15:03.581568,14.58907733,.0002794,47.0052,64.8300,310.5793,49.4849,0,U,41187,999,56370,.10038E-3,.304E-5,0
ORBCOMM FM117,2015-081K,2026-07-12T01:04:17.745312,14.58894934,.000325,47.0015,63.2961,317.3276,42.7357,0,U,41188,999,56375,.96121E-4,.283E-5,0
ORBCOMM FM116,2015-081L,2026-07-11T06:30:55.735488,14.58903266,.00013799,47.0011,156.7408,218.1214,141.9574,0,U,41189,999,56245,.53498669E-4,.82E-6,0
ZIYUAN 3-02 (ZY 3-02),2016-033A,2026-07-12T04:25:14.218176,15.21416536,.0013744,97.3831,268.4777,195.5712,164.5103,0,U,41556,999,56178,.14808E-3,.3262E-4,0
CARTOSAT-2C,2016-040A,2026-07-12T03:43:04.306944,15.19251685,.000977,97.4481,252.7872,54.8769,305.3380,0,U,41599,999,55750,.13908E-3,.2866E-4,0
LAPAN-A3,2016-040E,2026-07-12T04:30:47.373984,15.33266226,.0008262,97.1497,188.5160,289.2378,70.7971,0,U,41603,999,55864,.65348E-4,.2027E-4,0
GAOFEN-3,2016-049A,2026-07-12T04:46:15.900960,14.42218790,.0001801,98.4018,200.6071,87.2667,272.8729,0,U,41727,999,52225,.46018E-4,.108E-5,0
CAS-2T & KS-1Q,2016-066G,2026-07-12T04:09:30.210048,14.44766328,.0342398,98.3814,268.6236,53.9111,309.3277,0,U,41847,999,50840,.95449E-4,.623E-5,0
YUNHAI-1 01,2016-068A,2026-07-12T04:05:52.325664,14.32720344,.0003396,98.5851,203.9446,357.7128,2.4040,0,U,41857,999,50540,.67549E-4,.14E-5,0
RESOURCESAT-2A,2016-074A,2026-07-12T04:44:07.958112,14.21607541,.000256,98.7523,266.4962,35.4358,324.6988,0,U,41877,999,49785,-.25263E-4,-.1E-5,0
TANSAT,2016-081A,2026-07-12T04:41:15.642816,14.59970947,.0019272,98.5370,194.1928,229.8710,130.0801,0,U,41898,999,50827,.10228E-3,.441E-5,0
JILIN-1 03,2017-002B,2026-07-12T04:57:18.523296,15.42180480,.0007956,97.1947,199.9479,87.4148,272.8011,0,U,41914,999,52571,.19263E-3,.8185E-4,0
