COSMOS 2508 (RODNIK-S *)
1 40921U 15050B   26193.22124642  .00000027  00000+0  12201-3 0  9998
2 40921  82.4868  62.5779 0014061 333.5281  26.5078 12.42914892489952
COSMOS 2509 (RODNIK-S *)
1 40922U 15050C   26193.16170278  .00000009  00000+0 -24369-5 0  9999
2 40922  82.4876  62.7199 0014750 350.8502   9.2307 12.42884334489986
LINGQIAO VIDEO A        
1 40959U 15057B   26193.21758256  .00000916  00000+0  13524-3 0  9995
2 40959  97.6629 186.7861 0016400 182.6567 177.4560 14.77425843579108
LINGQIAO VIDEO B        
1 40960U 15057C   26193.19246132  .00000073  00000+0  16991-4 0  9995
2 40960  97.6595 187.9190 0016540 182.8536 177.2583 14.77528973579148
JILIN-1                 
1 40961U 15057D   26193.19477352  .00000422  00000+0  64772-4 0  9994
2 40961  97.6518 191.3212 0016939 176.5385 183.5946 14.78198571579301
FOX-1A (AO-85)          
1 40967U 15058D   26193.03515899  .00001727  00000+0  16264-3 0  9994
2 40967  64.7730 201.7566 0132122  46.9965 314.2129 14.91076787117272
SINOD-D 1               
1 40968U 15058E   26192.41172871  .00002981  00000+0  24247-3 0  9998
2 40968  64.7731 183.0409 0120742  43.5992 317.4586 14.96065583120284
ELEKTRO-L 2             
1 41105U 15074A   26192.41948436 -.00000118  00000+0  00000+0 0  9996
2 41105   6.7510  70.2237 0000888 218.2194 137.3884  1.00272476 38749
DAMPE                   
1 41173U 15078A   26193.20381446  .00000767  00000+0  28295-4 0  9995
2 41173  97.4565 198.7943 0011940 356.3904   3.7248 15.30848574588370
ORBCOMM FM110           
1 41182U 15081D   26192.62154704  .00000197  00000+0  77907-4 0  9990
2 41182  47.0009 245.9084 0003438 207.7250 152.3453 14.58915508561192
ORBCOMM FM112           
1 41184U 15081F   26192.24912345  .00000392  00000+0  11894-3 0  9992
2 41184  46.9978 156.4607 0003891 312.3848  47.6708 14.58935043562469
ORBCOMM FM113           
1 41185U 15081G   26192.97991603  .00000147  00000+0  67215-4 0  9994
2 41185  46.9996 153.3938 0002383 309.4592  50.6083 14.58880123562559
ORBCOMM FM108           
1 41187U 15081J   26193.01045812  .00000304  00000+0  10038-3 0  9999
2 41187  47.0052  64.8300 0002794 310.5793  49.4849 14.58907733563708
ORBCOMM FM117           
1 41188U 15081K   26193.04464983  .00000283  00000+0  96121-4 0  9991
2 41188  47.0015  63.2961 0003250 317.3276  42.7357 14.58894934563756
ORBCOMM FM116           
1 41189U 15081L   26192.27147842  .00000082  00000+0  53499-4 0  9996
2 41189  47.0011 156.7408 0001379 218.1214 141.9574 14.58903266562455
ZIYUAN 3-02 (ZY 3-02)   
1 41556U 16033A   26193.18419234  .00003262  00000+0  14808-3 0  9993
2 41556  97.3831 268.4777 0013744 195.5712 164.5103 15.21416536561785
CARTOSAT-2C             
1 41599U 16040A   26193.15491096  .00002866  00000+0  13908-3 0  9990
2 41599  97.4481 252.7872 0009770  54.8769 305.3380 15.19251685557505
LAPAN-A3                
1 41603U 16040E   26193.18804831  .00002027  00000+0  65348-4 0  9999
2 41603  97.1497 188.5160 0008262 289.2378  70.7971 15.33266226558644
GAOFEN-3                
1 41727U 16049A   26193.19879515  .00000108  00000+0  46018-4 0  9998
2 41727  98.4018 200.6071 0001801  87.2667 272.8729 14.42218790522256
CAS-2T & KS-1Q          
1 41847U 16066G   26193.17326632  .00000623  00000+0  95449-4 0  9999
2 41847  98.3814 268.6236 0342398  53.9111 309.3277 14.44766328508404
YUNHAI-1 01             
1 41857U 16068A   26193.17074451  .00000140  00000+0  67549-4 0  9995
2 41857  98.5851 203.9446 0003396 357.7128   2.4040 14.32720344505409
RESOURCESAT-2A          
1 41877U 16074A   26193.19731433 -.00000100  00000+0 -25263-4 0  9991
2 41877  98.7523 266.4962 0002560  35.4358 324.6988 14.21607541497853
TANSAT                  
1 41898U 16081A   26193.19531994  .00000441  00000+0  10228-3 0  9992
2 41898  98.5370 194.1928 0019272 229.8710 130.0801 14.59970947508278
JILIN-1 03              
1 41914U 17002B   26193.20646439  .00008185  00000+0  19263-3 0  9999
2 41914  97.1947 199.9479 0007956  87.4148 272.8011 15.42180480525719
